NORAD_CAT_ID,OBJECT_NAME,OBJECT_TYPE,EPOCH,MEAN_MOTION,ECCENTRICITY,INCLINATION,RA_OF_ASC_NODE,ARG_OF_PERICENTER,MEAN_ANOMALY,BSTAR,MEAN_MOTION_DOT,MEAN_MOTION_DDOT,TLE_LINE0,TLE_LINE1,TLE_LINE2,SEMIMAJOR_AXIS,PERIOD,APOGEE,PERIGEE,DECAYED
52605.0,STARLINK-4000,PAYLOAD,2023-08-17 02:46:22,15.08837569,0.0001448,53.2179,164.0761,92.8532,267.2626,-3.4499e-05,-8.37e-06,0.0,0 STARLINK-4000,1 52605U 22052H   23229.11553557 -.00000837  00000-0 -34499-4 0  9992,2 52605  53.2179 164.0761 0001448  92.8532 267.2626 15.08837569 69916,6917.888,95.438,540.755,538.751,0.0
52605.0,STARLINK-4000,PAYLOAD,2023-08-18 05:47:55,15.08844892,0.000131,53.218,159.0182,88.3909,271.7233,-2.1162e-05,-6.25e-06,0.0,0 STARLINK-4000,1 52605U 22052H   23230.24161167 -.00000625  00000-0 -21162-4 0  9998,2 52605  53.2180 159.0182 0001310  88.3909 271.7233 15.08844892 70086,6917.865,95.437,540.637,538.824,0.0
52605.0,STARLINK-4000,PAYLOAD,2023-08-18 12:09:28,15.08838921,0.0001204,53.217,157.8291,88.5373,271.5757,-4.9926e-05,-1.082e-05,0.0,0 STARLINK-4000,1 52605U 22052H   23230.50657566 -.00001082  00000-0 -49926-4 0  9996,2 52605  53.2170 157.8291 0001204  88.5373 271.5757 15.08838921 70121,6917.884,95.438,540.582,538.916,0.0
52605.0,STARLINK-4000,PAYLOAD,2023-08-19 04:03:19,15.08842192,0.000139,53.2177,154.8549,84.2249,275.8902,7.7264e-05,9.42e-06,0.0,0 STARLINK-4000,1 52605U 22052H   23231.16897253  .00000942  00000-0  77264-4 0  9996,2 52605  53.2177 154.8549 0001390  84.2249 275.8902 15.08842192 70227,6917.874,95.437,540.7,538.777,0.0
52605.0,STARLINK-4000,PAYLOAD,2023-08-20 03:54:07,15.08837789,0.000123,53.2178,150.3917,81.6459,278.4673,-5.5514e-05,-1.171e-05,0.0,0 STARLINK-4000,1 52605U 22052H   23232.16258266 -.00001171  00000-0 -55514-4 0  9993,2 52605  53.2178 150.3917 0001230  81.6459 278.4673 15.08837789 70371,6917.887,95.438,540.603,538.901,0.0
52605.0,STARLINK-4000,PAYLOAD,2023-08-21 03:44:53,15.08847815,0.0001498,53.2192,145.9296,100.6167,259.4994,4.8417e-05,4.83e-06,0.0,0 STARLINK-4000,1 52605U 22052H   23233.15617414  .00000483  00000-0  48417-4 0  9994,2 52605  53.2192 145.9296 0001498 100.6167 259.4994 15.08847815 70524,6917.857,95.437,540.758,538.685,0.0
52605.0,STARLINK-4000,PAYLOAD,2023-08-22 00:24:54,15.08847085,0.0001781,53.2202,142.0619,111.6927,248.4255,-1.4487e-05,-5.19e-06,0.0,0 STARLINK-4000,1 52605U 22052H   23234.01729691 -.00000519  00000-0 -14487-4 0  9993,2 52605  53.2202 142.0619 0001781 111.6927 248.4255 15.08847085 70655,6917.859,95.437,540.956,538.492,0.0
52605.0,STARLINK-4000,PAYLOAD,2023-08-23 00:15:41,15.08844901,0.0001496,53.2185,137.6066,88.7295,271.3869,-5.1583e-05,-1.109e-05,0.0,0 STARLINK-4000,1 52605U 22052H   23235.01089942 -.00001109  00000-0 -51583-4 0  9996,2 52605  53.2185 137.6066 0001496  88.7295 271.3869 15.08844901 70803,6917.865,95.437,540.765,538.695,0.0
52605.0,STARLINK-4000,PAYLOAD,2023-08-24 03:17:15,15.08839155,0.0001374,53.2182,132.5517,87.5818,272.5332,-3.3948e-05,-8.28e-06,0.0,0 STARLINK-4000,1 52605U 22052H   23236.13698285 -.00000828  00000-0 -33948-4 0  9998,2 52605  53.2182 132.5517 0001374  87.5818 272.5332 15.08839155 70609,6917.883,95.438,540.698,538.797,0.0
52605.0,STARLINK-4000,PAYLOAD,2023-08-25 01:32:38,15.08847485,0.0001382,53.2178,128.3898,80.1304,279.9844,-4.797e-05,-1.051e-05,0.0,0 STARLINK-4000,1 52605U 22052H   23237.06434014 -.00001051  00000-0 -47970-4 0  9998,2 52605  53.2178 128.3898 0001382  80.1304 279.9844 15.08847485 71118,6917.858,95.437,540.679,538.766,0.0
52605.0,STARLINK-4000,PAYLOAD,2023-08-25 20:37:17,15.08835384,0.0001399,53.2173,124.822,77.0202,283.0947,8.147e-06,-1.58e-06,0.0,0 STARLINK-4000,1 52605U 22052H   23237.85922751 -.00000158  00000-0  81470-5 0  9995,2 52605  53.2173 124.8220 0001399  77.0202 283.0947 15.08835384 70869,6917.894,95.438,540.727,538.792,0.0
52605.0,STARLINK-4000,PAYLOAD,2023-08-26 01:23:26,15.08837554,0.000141,53.2174,123.9299,81.1384,278.9768,2.6559e-05,1.35e-06,0.0,0 STARLINK-4000,1 52605U 22052H   23238.05794579  .00000135  00000-0  26559-4 0  9993,2 52605  53.2174 123.9299 0001410  81.1384 278.9768 15.08837554 71267,6917.888,95.438,540.728,538.777,0.0
52605.0,STARLINK-4000,PAYLOAD,2023-08-26 02:58:49,15.08838544,0.0001418,53.2174,123.6322,81.3418,278.7735,3.4656e-05,2.64e-06,0.0,0 STARLINK-4000,1 52605U 22052H   23238.12418495  .00000264  00000-0  34656-4 0  9991,2 52605  53.2174 123.6322 0001418  81.3418 278.7735 15.08838544 70901,6917.885,95.438,540.731,538.769,0.0
52605.0,STARLINK-4000,PAYLOAD,2023-08-26 20:28:04,15.08833745,0.0001583,53.2181,120.3602,78.4453,281.6717,-1.6355e-07,-2.91e-06,0.0,0 STARLINK-4000,1 52605U 22052H   23238.85283133 -.00000291  00000-0 -16355-6 0  9990,2 52605  53.2181 120.3602 0001583  78.4453 281.6717 15.08833745 71017,6917.9,95.438,540.86,538.669,0.0
52605.0,STARLINK-4000,PAYLOAD,2023-08-27 01:14:13,15.08843742,0.0001563,53.2178,119.4679,82.5045,277.6125,-3.4291e-05,-8.34e-06,0.0,0 STARLINK-4000,1 52605U 22052H   23239.05154713 -.00000834  00000-0 -34291-4 0  9994,2 52605  53.2178 119.4679 0001563  82.5045 277.6125 15.08843742 71046,6917.869,95.437,540.815,538.653,0.0
52605.0,STARLINK-4000,PAYLOAD,2023-08-27 20:18:50,15.08843936,0.0001591,53.2178,115.8994,83.3761,276.7413,8.6583e-05,1.09e-05,0.0,0 STARLINK-4000,1 52605U 22052H   23239.84642141  .00001090  00000-0  86583-4 0  9992,2 52605  53.2178 115.8994 0001591  83.3761 276.7413 15.08843936 71169,6917.868,95.437,540.834,538.633,0.0
52605.0,STARLINK-4000,PAYLOAD,2023-08-28 01:04:59,15.0884765,0.0001586,53.2176,115.0074,82.8715,277.2457,0.00011304,1.512e-05,0.0,0 STARLINK-4000,1 52605U 22052H   23240.04513772  .00001512  00000-0  11304-3 0  9990,2 52605  53.2176 115.0074 0001586  82.8715 277.2457 15.08847650 71560,6917.857,95.437,540.819,538.625,0.0
52605.0,STARLINK-4000,PAYLOAD,2023-08-28 21:45:01,15.08839028,0.0001364,53.2167,111.1415,102.9836,257.1309,-2.5751e-05,-6.98e-06,0.0,0 STARLINK-4000,1 52605U 22052H   23240.90626733 -.00000698  00000-0 -25751-4 0  9995,2 52605  53.2167 111.1415 0001364 102.9836 257.1309 15.08839028 71325,6917.883,95.438,540.692,538.805,0.0
52605.0,STARLINK-4000,PAYLOAD,2023-08-29 00:55:47,15.08839541,0.0001359,53.2172,110.5462,103.6758,256.4385,-2.2379e-05,-6.44e-06,0.0,0 STARLINK-4000,1 52605U 22052H   23241.03874681 -.00000644  00000-0 -22379-4 0  9991,2 52605  53.2172 110.5462 0001359 103.6758 256.4385 15.08839541 71710,6917.882,95.438,540.687,538.807,0.0
52605.0,STARLINK-4000,PAYLOAD,2023-08-29 20:00:25,15.08842011,0.0001319,53.217,106.9776,104.5649,255.549,-7.3048e-05,-1.45e-05,0.0,0 STARLINK-4000,1 52605U 22052H   23241.83362833 -.00001450  00000-0 -73048-4 0  9995,2 52605  53.2170 106.9776 0001319 104.5649 255.5490 15.08842011 71465,6917.874,95.437,540.652,538.827,0.0
52605.0,STARLINK-4000,PAYLOAD,2023-08-30 21:26:35,15.08838248,0.0001244,53.2161,102.2226,89.2557,270.8578,5.5764e-05,6e-06,0.0,0 STARLINK-4000,1 52605U 22052H   23242.89346775  .00000600  00000-0  55764-4 0  9998,2 52605  53.2161 102.2226 0001244  89.2557 270.8578 15.08838248 71620,6917.886,95.438,540.611,538.89,0.0
52605.0,STARLINK-4000,PAYLOAD,2023-08-31 00:37:21,15.0883793,0.0001255,53.2161,101.6277,89.4511,270.6625,6.7252e-05,7.83e-06,0.0,0 STARLINK-4000,1 52605U 22052H   23243.02594768  .00000783  00000-0  67252-4 0  9998,2 52605  53.2161 101.6277 0001255  89.4511 270.6625 15.08837930 72015,6917.887,95.438,540.62,538.884,0.0
52605.0,STARLINK-4000,PAYLOAD,2023-09-01 00:28:09,15.08835778,0.0001234,53.2152,97.1671,84.1614,275.9518,3.5975e-07,-2.82e-06,0.0,0 STARLINK-4000,1 52605U 22052H   23244.01955426 -.00000282  00000-0  35975-6 0  9994,2 52605  53.2152  97.1671 0001234  84.1614 275.9518 15.08835778 72168,6917.893,95.438,540.612,538.905,0.0
52605.0,STARLINK-4000,PAYLOAD,2023-09-01 13:11:14,15.08838688,9.34e-05,53.2126,94.7893,98.6681,261.4417,1.6782e-05,-2.1e-07,0.0,0 STARLINK-4000,1 52605U 22052H   23244.54947095 -.00000021  00000-0  16782-4 0  9999,2 52605  53.2126  94.7893 0000934  98.6681 261.4417 15.08838688 71876,6917.884,95.438,540.396,539.103,0.0
52605.0,STARLINK-4000,PAYLOAD,2023-09-01 21:08:09,15.08823353,0.0002616,53.2172,93.3022,93.36,266.7691,0.00041959,6.393e-05,0.0,0 STARLINK-4000,1 52605U 22052H   23244.88066808  .00006393  00000-0  41959-3 0  9990,2 52605  53.2172  93.3022 0002616  93.3600 266.7691 15.08823353 71929,6917.931,95.439,541.606,537.987,0.0
52605.0,STARLINK-4000,PAYLOAD,2023-09-02 09:51:15,15.08834979,0.0001335,53.2142,90.9216,88.1623,271.9522,2.3796e-05,9.1e-07,0.0,0 STARLINK-4000,1 52605U 22052H   23245.41059307  .00000091  00000-0  23796-4 0  9995,2 52605  53.2142  90.9216 0001335  88.1623 271.9522 15.08834979 72375,6917.896,95.438,540.684,538.837,0.0
52605.0,STARLINK-4000,PAYLOAD,2023-09-02 13:02:01,15.08834992,0.0001444,53.2141,90.3268,82.1829,277.9327,2.0465e-05,3.8e-07,0.0,0 STARLINK-4000,1 52605U 22052H   23245.54307414  .00000038  00000-0  20465-4 0  9995,2 52605  53.2141  90.3268 0001444  82.1829 277.9327 15.08834992 72024,6917.896,95.438,540.76,538.762,0.0
52605.0,STARLINK-4000,PAYLOAD,2023-09-02 17:48:11,15.08834447,0.000123,53.2169,89.4358,90.0273,270.086,1.9692e-07,-2.85e-06,0.0,0 STARLINK-4000,1 52605U 22052H   23245.74179604 -.00000285  00000-0  19692-6 0  9992,2 52605  53.2169  89.4358 0001230  90.0273 270.0860 15.08834447 72051,6917.897,95.438,540.613,538.911,0.0
52605.0,STARLINK-4000,PAYLOAD,2023-09-03 06:31:16,15.08833647,0.000134,53.2165,87.0564,91.3553,268.7593,4.192e-06,-2.21e-06,0.0,0 STARLINK-4000,1 52605U 22052H   23246.27171762 -.00000221  00000-0  41920-5 0  9996,2 52605  53.2165  87.0564 0001340  91.3553 268.7593 15.08833647 72134,6917.9,95.438,540.692,538.838,0.0
52605.0,STARLINK-4000,PAYLOAD,2023-09-03 17:38:58,15.0884204,0.0001434,53.2167,84.975,94.5395,265.5761,-3.4418e-05,-8.36e-06,0.0,0 STARLINK-4000,1 52605U 22052H   23246.73539409 -.00000836  00000-0 -34418-4 0  9999,2 52605  53.2167  84.9750 0001434  94.5395 265.5761 15.08842040 72579,6917.874,95.437,540.731,538.747,0.0
